{
  "65889": {
    "noradId": "65889",
    "tle": [
      "1 65889C 25224H   25331.77548611  .00004979  00000+0  16781-3 0  3318",
      "2 65889  53.1610 124.9920 0001242  81.4747  38.7480 15.30184953    11"
    ]
  },
  "65890": {
    "noradId": "65890",
    "tle": [
      "1 65890C 25224J   25331.78798611 -.00007244  00000+0 -24413-3 0  3319",
      "2 65890  53.1603 124.9098 0001316  86.2365 120.3059 15.30203855    15"
    ]
  },
  "65891": {
    "noradId": "65891",
    "tle": [
      "1 65891C 25224K   25331.79215278 -.00001015  00000+0 -34204-4 0  3314",
      "2 65891  53.1611 124.9840 0001783  86.0021  91.1849 15.30191730    15"
    ]
  },
  "65892": {
    "noradId": "65892",
    "tle": [
      "1 65892C 25224L   25331.78937500  .00002757  00000+0  92931-4 0  3316",
      "2 65892  53.1584 124.6146 0001100  86.7711 272.8725 15.30183002    11"
    ]
  },
  "65893": {
    "noradId": "65893",
    "tle": [
      "1 65893C 25224M   25331.78520833 -.00027408  00000+0 -92294-3 0  3317",
      "2 65893  53.1605 124.8772 0001217  87.8353 120.8479 15.30247263    14"
    ]
  },
  "65894": {
    "noradId": "65894",
    "tle": [
      "1 65894C 25224N   25331.78451389  .00002503  00000+0  84355-4 0  3314",
      "2 65894  53.1592 124.8000 0001481  78.9666 166.6356 15.30187280    19"
    ]
  },
  "65895": {
    "noradId": "65895",
    "tle": [
      "1 65895C 25224P   25331.78937500 -.00008431  00000+0 -28414-3 0  3310",
      "2 65895  53.1587 124.6380 0001263  91.3821 250.7967 15.30200962    19"
    ]
  },
  "65896": {
    "noradId": "65896",
    "tle": [
      "1 65896C 25224Q   25331.79145833  .00008647  00000+0  29146-3 0  3312",
      "2 65896  53.1586 124.6973 0001237  86.8325 231.9471 15.30180040    11"
    ]
  },
  "65897": {
    "noradId": "65897",
    "tle": [
      "1 65897C 25224R   25331.79145833 -.00000761  00000+0 -25647-4 0  3317",
      "2 65897  53.1588 124.4890 0001246  86.6979 336.7808 15.30190044    16"
    ]
  },
  "65898": {
    "noradId": "65898",
    "tle": [
      "1 65898C 25224S   25331.79145833  .00002866  00000+0  96604-4 0  3315",
      "2 65898  53.1587 124.5587 0001198  86.1063 302.4759 15.30184158    19"
    ]
  },
  "65899": {
    "noradId": "65899",
    "tle": [
      "1 65899C 25224T   25331.77479167 -.00002308  00000+0 -77802-4 0  3316",
      "2 65899  53.1602 124.4505 0001239  87.1140 302.6621 15.30192664    11"
    ]
  },
  "65900": {
    "noradId": "65900",
    "tle": [
      "1 65900C 25224U   25331.77618056  .00000936  00000+0  31540-4 0  3313",
      "2 65900  53.1608 124.4097 0001130  85.6605 329.2287 15.30186553    18"
    ]
  },
  "65901": {
    "noradId": "65901",
    "tle": [
      "1 65901C 25224V   25331.78034722  .00004013  00000+0  13526-3 0  3310",
      "2 65901  53.1596 124.8398 0001215  85.2686 125.7368 15.30185304    14"
    ]
  },
  "65902": {
    "noradId": "65902",
    "tle": [
      "1 65902C 25224W   25331.78173611  .00010002  00000+0  33720-3 0  3315",
      "2 65902  53.1610 124.9481 0001317  80.4264  80.0775 15.30174180    13"
    ]
  },
  "65903": {
    "noradId": "65903",
    "tle": [
      "1 65903C 25224X   25331.77548611 -.00002749  00000+0 -92663-4 0  3314",
      "2 65903  53.1610 125.0815 0001248  85.4199 348.2729 15.30193743    16"
    ]
  },
  "65904": {
    "noradId": "65904",
    "tle": [
      "1 65904C 25224Y   25331.78034722  .00002591  00000+0  87332-4 0  3319",
      "2 65904  53.1593 124.4824 0001201  87.8464 303.4720 15.30188282    16"
    ]
  },
  "65905": {
    "noradId": "65905",
    "tle": [
      "1 65905C 25224Z   25331.78173611 -.00049007  00000+0 -16504-2 0  3317",
      "2 65905  53.1588 124.7298 0001435  83.1851 187.8052 15.30265986    16"
    ]
  },
  "65906": {
    "noradId": "65906",
    "tle": [
      "1 65906C 25224AA  25331.78243056  .00004378  00000+0  14758-3 0  3319",
      "2 65906  53.1587 124.5870 0001142  85.3520 259.2850 15.30183981    16"
    ]
  },
  "65907": {
    "noradId": "65907",
    "tle": [
      "1 65907C 25224AB  25331.77548611  .00002429  00000+0  81865-4 0  3313",
      "2 65907  53.1589 124.5494 0001289  77.4739 263.7847 15.30187318    11"
    ]
  },
  "65908": {
    "noradId": "65908",
    "tle": [
      "1 65908C 25224AC  25331.77826389  .00001388  00000+0  46794-4 0  3310",
      "2 65908  53.1587 124.6756 0001231  86.7400 200.0298 15.30189343    11"
    ]
  },
  "65909": {
    "noradId": "65909",
    "tle": [
      "1 65909C 25224AD  25331.77548611 -.00004121  00000+0 -13889-3 0  3318",
      "2 65909  53.1611 125.0337 0001256  88.5497   8.4156 15.30193573    16"
    ]
  },
  "65910": {
    "noradId": "65910",
    "tle": [
      "1 65910C 25225A   25331.78104167 -.00010674  00000+0 -35972-3 0  3313",
      "2 65910  53.1610 279.1805 0001248  86.0556 265.5735 15.30205860    10"
    ]
  },
  "65911": {
    "noradId": "65911",
    "tle": [
      "1 65911C 25225B   25331.78729167 -.00016413  00000+0 -55312-3 0  3314",
      "2 65911  53.1600 279.2891 0001259  78.2257 238.0511 15.30210496    17"
    ]
  },
  "65912": {
    "noradId": "65912",
    "tle": [
      "1 65912C 25225C   25331.77548611 -.00008083  00000+0 -27240-3 0  3310",
      "2 65912  53.1614 279.2399 0001256  86.1312 217.4278 15.30204136    18"
    ]
  },
  "65913": {
    "noradId": "65913",
    "tle": [
      "1 65913C 25225D   25331.78034722 -.00013716  00000+0 -46222-3 0  3315",
      "2 65913  53.1606 279.1486 0001305  87.7877 277.4621 15.30208700    13"
    ]
  },
  "65914": {
    "noradId": "65914",
    "tle": [
      "1 65914C 25225E   25331.78173611  .00030052  00000+0  10131-2 0  3316",
      "2 65914  53.1595 278.6914 0001392  92.2474 147.5188 15.30154942    14"
    ]
  },
  "65915": {
    "noradId": "65915",
    "tle": [
      "1 65915C 25225F   25331.77479167 -.00010938  00000+0 -27291-3 0  3310",
      "2 65915  53.1611 280.1685 0001258  83.5389 116.4943 15.39628957    11"
    ]
  },
  "65916": {
    "noradId": "65916",
    "tle": [
      "1 65916C 25225G   25331.77826389 -.00009055  00000+0 -30516-3 0  3315",
      "2 65916  53.1607 279.1107 0001244  87.2754 289.7588 15.30203885    15"
    ]
  },
  "65917": {
    "noradId": "65917",
    "tle": [
      "1 65917C 25225H   25331.77548611 -.00013333  00000+0 -44939-3 0  3313",
      "2 65917  53.1606 279.1585 0001340  86.1361 258.1438 15.30204618    13"
    ]
  },
  "65918": {
    "noradId": "65918",
    "tle": [
      "1 65918C 25225J   25331.77756944 -.00016653  00000+0 -56122-3 0  3319",
      "2 65918  53.1581 278.9289 0001327  86.1839  20.0930 15.30211394    11"
    ]
  },
  "65919": {
    "noradId": "65919",
    "tle": [
      "1 65919C 25225K   25331.77687500  .00021938  00000+0  73991-3 0  3314",
      "2 65919  53.1600 278.6786 0001061  90.7901 139.6390 15.30147038    19"
    ]
  },
  "65920": {
    "noradId": "65920",
    "tle": [
      "1 65920C 25225L   25331.79284722 -.00003086  00000+0 -10402-3 0  3311",
      "2 65920  53.1601 279.2490 0001219  82.9777 269.7480 15.30195770    11"
    ]
  },
  "65921": {
    "noradId": "65921",
    "tle": [
      "1 65921C 25225M   25331.78243056 -.00018210  00000+0 -61371-3 0  3312",
      "2 65921  53.1607 279.2628 0001164  88.0331 224.7203 15.30210841    14"
    ]
  },
  "65922": {
    "noradId": "65922",
    "tle": [
      "1 65922C 25225N   25331.77826389 -.00015559  00000+0 -52431-3 0  3318",
      "2 65922  53.1611 279.2475 0001336  85.5716 221.6649 15.30211721    18"
    ]
  },
  "65923": {
    "noradId": "65923",
    "tle": [
      "1 65923C 25225P   25331.77826389 -.00011991  00000+0 -40410-3 0  3319",
      "2 65923  53.1577 278.8548 0001165  89.2447  55.7631 15.30206352    19"
    ]
  },
  "65924": {
    "noradId": "65924",
    "tle": [
      "1 65924C 25225Q   25331.79145833 -.00006609  00000+0 -22273-3 0  3317",
      "2 65924  53.1578 278.7588 0001163  91.0203 144.1628 15.30201245    18"
    ]
  },
  "65925": {
    "noradId": "65925",
    "tle": [
      "1 65925C 25225R   25331.77895833 -.00017918  00000+0 -60387-3 0  3311",
      "2 65925  53.1584 278.7473 0001202  90.5195 110.6638 15.30211352    16"
    ]
  },
  "65926": {
    "noradId": "65926",
    "tle": [
      "1 65926C 25225S   25331.77618056 -.00009483  00000+0 -31960-3 0  3315",
      "2 65926  53.1581 278.7947 0001318  88.4902  79.9271 15.30203574    17"
    ]
  },
  "65927": {
    "noradId": "65927",
    "tle": [
      "1 65927C 25225T   25331.78173611 -.00022077  00000+0 -74389-3 0  3316",
      "2 65927  53.1594 279.3318 0001377  76.6580 197.3555 15.30221393    16"
    ]
  },
  "65928": {
    "noradId": "65928",
    "tle": [
      "1 65928C 25225U   25331.77826389 -.00017819  00000+0 -60051-3 0  3312",
      "2 65928  53.1613 279.1767 0001210  86.0943 256.0442 15.30212144    11"
    ]
  },
  "65929": {
    "noradId": "65929",
    "tle": [
      "1 65929C 25225V   25331.78173611 -.00004077  00000+0 -13742-3 0  3314",
      "2 65929  53.1598 279.0101 0001329  86.5711 350.3322 15.30196384    16"
    ]
  },
  "65930": {
    "noradId": "65930",
    "tle": [
      "1 65930C 25225W   25331.77965278 -.00017567  00000+0 -59197-3 0  3315",
      "2 65930  53.1613 279.2044 0001437  85.7473 246.5904 15.30215159    14"
    ]
  },
  "65931": {
    "noradId": "65931",
    "tle": [
      "1 65931C 25225X   25331.77965278 -.00001407  00000+0 -47425-4 0  3314",
      "2 65931  53.1593 278.9841 0001295  84.4447 358.4226 15.30194747    11"
    ]
  },
  "65932": {
    "noradId": "65932",
    "tle": [
      "1 65932C 25225Y   25331.77548611 -.00013096  00000+0 -44147-3 0  3317",
      "2 65932  53.1587 278.9693 0001222  78.7042 358.6654 15.30199497    11"
    ]
  },
  "65933": {
    "noradId": "65933",
    "tle": [
      "1 65933C 25225Z   25331.77618056 -.00012615  00000+0 -42514-3 0  3311",
      "2 65933  53.1595 279.3440 0001377  92.8980 156.3248 15.30207007    14"
    ]
  }
}